CCSDS_OMM_VERS = 2.0
CREATION_DATE  = 
ORIGINATOR     = 

OBJECT_NAME    = SL-14 R/B
OBJECT_ID      = 1991-042B
CENTER_NAME    = EARTH
REF_FRAME      = TEME
TIME_SYSTEM    = UTC
MEAN_ELEMENT_THEORY = SGP/SGP4

EPOCH          = 2025-12-31T21:25:43.913568
MEAN_MOTION    = 14.81759615
ECCENTRICITY   = .00185521
INCLINATION    = 82.4937
RA_OF_ASC_NODE = 283.7646
ARG_OF_PERICENTER = 102.6340
MEAN_ANOMALY   = 257.6950

EPHEMERIS_TYPE = 0
CLASSIFICATION_TYPE = U
NORAD_CAT_ID   = 21423
ELEMENT_SET_NO = 999
REV_AT_EPOCH   = 84303
BSTAR          = .94860045E-4
MEAN_MOTION_DOT = .774E-5
MEAN_MOTION_DDOT = 0

CCSDS_OMM_VERS = 2.0
CREATION_DATE  = 
ORIGINATOR     = 

OBJECT_NAME    = ERS-1
OBJECT_ID      = 1991-050A
CENTER_NAME    = EARTH
REF_FRAME      = TEME
TIME_SYSTEM    = UTC
MEAN_ELEMENT_THEORY = SGP/SGP4

EPOCH          = 2025-12-31T22:08:58.766496
MEAN_MOTION    = 14.39382312
ECCENTRICITY   = .0032709
INCLINATION    = 98.7897
RA_OF_ASC_NODE = 17.4569
ARG_OF_PERICENTER = 44.7104
MEAN_ANOMALY   = 315.6711

EPHEMERIS_TYPE = 0
CLASSIFICATION_TYPE = U
NORAD_CAT_ID   = 21574
ELEMENT_SET_NO = 999
REV_AT_EPOCH   = 80598
BSTAR          = .21131799E-3
MEAN_MOTION_DOT = .615E-5
MEAN_MOTION_DDOT = 0

CCSDS_OMM_VERS = 2.0
CREATION_DATE  = 
ORIGINATOR     = 

OBJECT_NAME    = ARIANE 40 R/B
OBJECT_ID      = 1991-050F
CENTER_NAME    = EARTH
REF_FRAME      = TEME
TIME_SYSTEM    = UTC
MEAN_ELEMENT_THEORY = SGP/SGP4

EPOCH          = 2025-12-31T17:15:03.911328
MEAN_MOTION    = 14.42831425
ECCENTRICITY   = .00019628
INCLINATION    = 98.2139
RA_OF_ASC_NODE = 55.4620
ARG_OF_PERICENTER = 283.7397
MEAN_ANOMALY   = 76.3575

EPHEMERIS_TYPE = 0
CLASSIFICATION_TYPE = U
NORAD_CAT_ID   = 21610
ELEMENT_SET_NO = 999
REV_AT_EPOCH   = 80919
BSTAR          = .21716959E-3
MEAN_MOTION_DOT = .683E-5
MEAN_MOTION_DDOT = 0

CCSDS_OMM_VERS = 2.0
CREATION_DATE  = 
ORIGINATOR     = 

OBJECT_NAME    = INTERCOSMOS 25
OBJECT_ID      = 1991-086A
CENTER_NAME    = EARTH
REF_FRAME      = TEME
TIME_SYSTEM    = UTC
MEAN_ELEMENT_THEORY = SGP/SGP4

EPOCH          = 2025-12-31T20:55:52.482144
MEAN_MOTION    = 12.11808809
ECCENTRICITY   = .14860887
INCLINATION    = 82.6077
RA_OF_ASC_NODE = 351.0027
ARG_OF_PERICENTER = 263.1308
MEAN_ANOMALY   = 79.9072

EPHEMERIS_TYPE = 0
CLASSIFICATION_TYPE = U
NORAD_CAT_ID   = 21819
ELEMENT_SET_NO = 999
REV_AT_EPOCH   = 48847
BSTAR          = .48960363E-3
MEAN_MOTION_DOT = .2458E-4
MEAN_MOTION_DDOT = 0

CCSDS_OMM_VERS = 2.0
CREATION_DATE  = 
ORIGINATOR     = 

OBJECT_NAME    = SL-8 R/B
OBJECT_ID      = 1992-008B
CENTER_NAME    = EARTH
REF_FRAME      = TEME
TIME_SYSTEM    = UTC
MEAN_ELEMENT_THEORY = SGP/SGP4

EPOCH          = 2025-12-31T22:47:18.184128
MEAN_MOTION    = 13.75963675
ECCENTRICITY   = .00339972
INCLINATION    = 82.9278
RA_OF_ASC_NODE = 318.1584
ARG_OF_PERICENTER = 326.0043
MEAN_ANOMALY   = 95.3557

EPHEMERIS_TYPE = 0
CLASSIFICATION_TYPE = U
NORAD_CAT_ID   = 21876
ELEMENT_SET_NO = 999
REV_AT_EPOCH   = 70010
BSTAR          = .14756949E-3
MEAN_MOTION_DOT = .159E-5
MEAN_MOTION_DDOT = 0

CCSDS_OMM_VERS = 2.0
CREATION_DATE  = 
ORIGINATOR     = 

OBJECT_NAME    = SL-8 R/B
OBJECT_ID      = 1992-020B
CENTER_NAME    = EARTH
REF_FRAME      = TEME
TIME_SYSTEM    = UTC
MEAN_ELEMENT_THEORY = SGP/SGP4

EPOCH          = 2025-12-31T21:50:53.260224
MEAN_MOTION    = 13.75533013
ECCENTRICITY   = .00299876
INCLINATION    = 82.9290
RA_OF_ASC_NODE = 204.0814
ARG_OF_PERICENTER = 125.6252
MEAN_ANOMALY   = 351.9102

EPHEMERIS_TYPE = 0
CLASSIFICATION_TYPE = U
NORAD_CAT_ID   = 21938
ELEMENT_SET_NO = 999
REV_AT_EPOCH   = 69181
BSTAR          = .23041249E-3
MEAN_MOTION_DOT = .238E-5
MEAN_MOTION_DDOT = 0

CCSDS_OMM_VERS = 2.0
CREATION_DATE  = 
ORIGINATOR     = 

OBJECT_NAME    = USA 81
OBJECT_ID      = 1992-023A
CENTER_NAME    = EARTH
REF_FRAME      = TEME
TIME_SYSTEM    = UTC
MEAN_ELEMENT_THEORY = SGP/SGP4

EPOCH          = 2025-12-31T21:30:23.868576
MEAN_MOTION    = 14.32335642
ECCENTRICITY   = .00010779
INCLINATION    = 85.0089
RA_OF_ASC_NODE = 170.5283
ARG_OF_PERICENTER = 101.5823
MEAN_ANOMALY   = 258.5491

EPHEMERIS_TYPE = 0
CLASSIFICATION_TYPE = U
NORAD_CAT_ID   = 21949
ELEMENT_SET_NO = 999
REV_AT_EPOCH   = 8508
BSTAR          = .13219236E-3
MEAN_MOTION_DOT = .377E-5
MEAN_MOTION_DDOT = 0

CCSDS_OMM_VERS = 2.0
CREATION_DATE  = 
ORIGINATOR     = 

OBJECT_NAME    = COSMOS 2219
OBJECT_ID      = 1992-076A
CENTER_NAME    = EARTH
REF_FRAME      = TEME
TIME_SYSTEM    = UTC
MEAN_ELEMENT_THEORY = SGP/SGP4

EPOCH          = 2025-12-31T21:28:43.155552
MEAN_MOTION    = 14.14074411
ECCENTRICITY   = .00198731
INCLINATION    = 71.0599
RA_OF_ASC_NODE = 159.7902
ARG_OF_PERICENTER = 300.4470
MEAN_ANOMALY   = 59.4688

EPHEMERIS_TYPE = 0
CLASSIFICATION_TYPE = U
NORAD_CAT_ID   = 22219
ELEMENT_SET_NO = 999
REV_AT_EPOCH   = 70879
BSTAR          = .25410473E-3
MEAN_MOTION_DOT = .437E-5
MEAN_MOTION_DDOT = 0

CCSDS_OMM_VERS = 2.0
CREATION_DATE  = 
ORIGINATOR     = 

OBJECT_NAME    = SL-16 R/B
OBJECT_ID      = 1992-076B
CENTER_NAME    = EARTH
REF_FRAME      = TEME
TIME_SYSTEM    = UTC
MEAN_ELEMENT_THEORY = SGP/SGP4

EPOCH          = 2025-12-31T21:57:53.819136
MEAN_MOTION    = 14.16845673
ECCENTRICITY   = .00138702
INCLINATION    = 71.0011
RA_OF_ASC_NODE = 331.1383
ARG_OF_PERICENTER = 208.2174
MEAN_ANOMALY   = 185.8207

EPHEMERIS_TYPE = 0
CLASSIFICATION_TYPE = U
NORAD_CAT_ID   = 22220
ELEMENT_SET_NO = 999
REV_AT_EPOCH   = 71223
BSTAR          = -.46652441E-4
MEAN_MOTION_DOT = -.142E-5
MEAN_MOTION_DDOT = 0

CCSDS_OMM_VERS = 2.0
CREATION_DATE  = 
ORIGINATOR     = 

OBJECT_NAME    = COSMOS 2221
OBJECT_ID      = 1992-080A
CENTER_NAME    = EARTH
REF_FRAME      = TEME
TIME_SYSTEM    = UTC
MEAN_ELEMENT_THEORY = SGP/SGP4

EPOCH          = 2025-12-31T21:11:40.581312
MEAN_MOTION    = 14.95852433
ECCENTRICITY   = .00161537
INCLINATION    = 82.5041
RA_OF_ASC_NODE = 344.0002
ARG_OF_PERICENTER = 63.4918
MEAN_ANOMALY   = 296.7958

EPHEMERIS_TYPE = 0
CLASSIFICATION_TYPE = U
NORAD_CAT_ID   = 22236
ELEMENT_SET_NO = 999
REV_AT_EPOCH   = 77065
BSTAR          = .38093014E-3
MEAN_MOTION_DOT = .4291E-4
MEAN_MOTION_DDOT = 0

CCSDS_OMM_VERS = 2.0
CREATION_DATE  = 
ORIGINATOR     = 

OBJECT_NAME    = SL-16 R/B
OBJECT_ID      = 1992-093B
CENTER_NAME    = EARTH
REF_FRAME      = TEME
TIME_SYSTEM    = UTC
MEAN_ELEMENT_THEORY = SGP/SGP4

EPOCH          = 2025-12-31T19:48:18.916416
MEAN_MOTION    = 14.15434741
ECCENTRICITY   = .0002849
INCLINATION    = 71.0213
RA_OF_ASC_NODE = 146.7323
ARG_OF_PERICENTER = 15.9964
MEAN_ANOMALY   = 344.1248

EPHEMERIS_TYPE = 0
CLASSIFICATION_TYPE = U
NORAD_CAT_ID   = 22285
ELEMENT_SET_NO = 999
REV_AT_EPOCH   = 70355
BSTAR          = -.50292099E-4
MEAN_MOTION_DOT = -.146E-5
MEAN_MOTION_DDOT = 0

CCSDS_OMM_VERS = 2.0
CREATION_DATE  = 
ORIGINATOR     = 

OBJECT_NAME    = COSMOS 2228
OBJECT_ID      = 1992-094A
CENTER_NAME    = EARTH
REF_FRAME      = TEME
TIME_SYSTEM    = UTC
MEAN_ELEMENT_THEORY = SGP/SGP4

EPOCH          = 2025-12-31T21:02:42.965088
MEAN_MOTION    = 14.96833539
ECCENTRICITY   = .00182768
INCLINATION    = 82.5190
RA_OF_ASC_NODE = 302.2233
ARG_OF_PERICENTER = 164.5359
MEAN_ANOMALY   = 195.6426

EPHEMERIS_TYPE = 0
CLASSIFICATION_TYPE = U
NORAD_CAT_ID   = 22286
ELEMENT_SET_NO = 999
REV_AT_EPOCH   = 76591
BSTAR          = .3264933E-3
MEAN_MOTION_DOT = .3778E-4
MEAN_MOTION_DDOT = 0

