SL-14 R/B               
1 21423U 91042B   25365.89286937  .00000774  00000+0  94860-4 0  9999
2 21423  82.4937 283.7646 0018552 102.6340 257.6950 14.81759615843039
ERS-1                   
1 21574U 91050A   25365.92290239  .00000615  00000+0  21132-3 0  9994
2 21574  98.7897  17.4569 0032709  44.7104 315.6711 14.39382312805982
ARIANE 40 R/B           
1 21610U 91050F   25365.71879527  .00000683  00000+0  21717-3 0  9999
2 21610  98.2139  55.4620 0001962 283.7397  76.3575 14.42831425809197
INTERCOSMOS 25          
1 21819U 91086A   25365.87213521  .00002458  00000+0  48960-3 0  9993
2 21819  82.6077 351.0027 1486088 263.1308  79.9072 12.11808809488472
SL-8 R/B                
1 21876U 92008B   25365.94951602  .00000159  00000+0  14757-3 0  9991
2 21876  82.9278 318.1584 0033997 326.0043  95.3557 13.75963675700105
SL-8 R/B                
1 21938U 92020B   25365.91033866  .00000238  00000+0  23041-3 0  9998
2 21938  82.9290 204.0814 0029987 125.6252 351.9102 13.75533013691819
USA 81                  
1 21949U 92023A   25365.89610959  .00000377  00000+0  13219-3 0  9994
2 21949  85.0089 170.5283 0001077 101.5823 258.5491 14.32335642 85086
COSMOS 2219             
1 22219U 92076A   25365.89494393  .00000437  00000+0  25410-3 0  9998
2 22219  71.0599 159.7902 0019873 300.4470  59.4688 14.14074411708796
SL-16 R/B               
1 22220U 92076B   25365.91520624 -.00000142  00000+0 -46652-4 0  9997
2 22220  71.0011 331.1383 0013870 208.2174 185.8207 14.16845673712236
COSMOS 2221             
1 22236U 92080A   25365.88310858  .00004291  00000+0  38093-3 0  9997
2 22236  82.5041 344.0002 0016153  63.4918 296.7958 14.95852433770652
SL-16 R/B               
1 22285U 92093B   25365.82521894 -.00000146  00000+0 -50292-4 0  9996
2 22285  71.0213 146.7323 0002849  15.9964 344.1248 14.15434741703558
COSMOS 2228             
1 22286U 92094A   25365.87688617  .00003778  00000+0  32649-3 0  9997
2 22286  82.5190 302.2233 0018276 164.5359 195.6426 14.96833539765911
